ONEWEB-0456             
1 51646U 22012AA  24259.69656517 -.00000454  00000+0 -13371-2 0  9997
2 51646  87.8982 163.5024 0001903  81.9928 278.1415 13.10376739126880
ONEWEB-0457             
1 51647U 22012AB  24259.74967827 -.00002597  00000+0 -74770-2 0  9993
2 51647  87.8988 163.5224 0002271  64.8779 295.2584 13.10383247126904
ONEWEB-0458             
1 51648U 22012AC  24259.16039272 -.00000422  00000+0 -12443-2 0  9998
2 51648  87.8992 163.6549 0001644  72.2966 287.8341 13.10374696126787
ONEWEB-0461             
1 51649U 22012AD  24259.69408865  .00000670  00000+0  16934-2 0  9997
2 51649  87.9157 133.2406 0001618  77.6926 282.4387 13.17644993130966
ONEWEB-0463             
1 51650U 22012AE  24259.90409045  .00000039  00000+0  68437-4 0  9990
2 51650  87.9139 133.2496 0001691  74.1454 285.9864 13.17651793130780
ONEWEB-0464             
1 51651U 22012AF  24258.77527929 -.00000513  00000+0 -15058-2 0  9995
2 51651  87.8992 163.7199 0001809  86.7016 273.4318 13.10375854125457
ONEWEB-0468             
1 51652U 22012AG  24259.77457168 -.00000971  00000+0 -28171-2 0  9992
2 51652  87.8994 163.5153 0001927  75.0133 285.1207 13.10377130126851
ONEWEB-0473             
1 51653U 22012AH  24259.45419456 -.00000537  00000+0 -15750-2 0  9993
2 51653  87.8990 163.5821 0001666  74.4346 285.6965 13.10371523126822
ONEWEB-0474             
1 51654U 22012AJ  24259.44590381 -.00000252  00000+0 -75712-3 0  9999
2 51654  87.8976 163.5720 0001647  78.9518 281.1794 13.10370872126809
ONEWEB-0475             
1 51655U 22012AK  24258.92824030  .00000146  00000+0  34331-3 0  9995
2 51655  87.9141 133.4227 0000912  89.2256 270.8980 13.17653913130669
ONEWEB-0490             
1 54113U 22138A   24259.54412989 -.00000516  00000+0 -13206-2 0  9991
2 54113  87.9088  72.1908 0001952  92.7288 267.4068 13.19728174 93330
ONEWEB-0492             
1 54114U 22138B   24259.49358491  .00000158  00000+0  36186-3 0  9996
2 54114  87.9097  72.2093 0001796  99.8645 260.2691 13.19724257 93339
ONEWEB-0495             
1 54115U 22138C   24259.85054627 -.00005848  00000+0 -14644-1 0  9997
2 54115  87.9098  72.1495 0001447 125.1531 234.9738 13.19752529 93362
ONEWEB-0497             
1 54116U 22138D   24259.55991389 -.00000627  00000+0 -15982-2 0  9997
2 54116  87.9092  72.1918 0001854  93.0182 267.1163 13.19728987 93310
ONEWEB-0499             
1 54117U 22138E   24259.54254143  .00000090  00000+0  19242-3 0  9993
2 54117  87.9096  72.2005 0001265  89.2002 270.9276 13.19726598 93321
ONEWEB-0500             
1 54118U 22138F   24259.54571059  .00000038  00000+0  62914-4 0  9999
2 54118  87.9094  72.1931 0001818  92.7244 267.4097 13.19723132 93332
ONEWEB-0501             
1 54119U 22138G   24259.19663622  .00000098  00000+0  21321-3 0  9991
2 54119  87.9094  72.2600 0001578 109.7594 250.3709 13.19725295 93262
ONEWEB-0502             
1 54120U 22138H   24259.86476998 -.00000043  00000+0 -13999-3 0  9999
2 54120  87.9092  72.1144 0001505 100.3152 259.8150 13.19724465 93375
ONEWEB-0503             
1 54121U 22138J   24259.55043861  .00000117  00000+0  25987-3 0  9995
2 54121  87.9090  72.1836 0001449  80.4135 279.7162 13.19728327 93328
ONEWEB-0504             
1 54122U 22138K   24259.53781420  .00000976  00000+0  24051-2 0  9997
2 54122  87.9091  72.1941 0001344  97.9618 262.1668 13.19719300 93339
ONEWEB-0505             
1 54123U 22138L   24259.76210392  .00000112  00000+0  24684-3 0  9993
2 54123  87.9089  72.1428 0001414 115.6504 244.4774 13.19724190 93342
ONEWEB-0506             
1 54124U 22138M   24259.20611340  .00000119  00000+0  26450-3 0  9991
2 54124  87.9088  72.2506 0001653  97.8474 262.2846 13.19725401 93267
ONEWEB-0507             
1 54125U 22138N   24259.75736728  .00000157  00000+0  35883-3 0  9992
2 54125  87.9101  72.1697 0001750 101.3781 258.7548 13.19723660 93381
ONEWEB-0508             
1 54126U 22138P   24259.22347319  .00000026  00000+0  31947-4 0  9992
2 54126  87.9095  72.2672 0001834 107.7383 252.3950 13.19722814 93296
ONEWEB-0509             
1 54127U 22138Q   24259.19821662  .00000216  00000+0  50732-3 0  9990
2 54127  87.9089  72.2530 0001633  95.2438 264.8881 13.19725321 93266
ONEWEB-0510             
1 54128U 22138R   24259.44114210 -.00000053  00000+0 -16204-3 0  9990
2 54128  87.9235  41.6808 0002221  92.3788 267.7600 13.20772747 95739
ONEWEB-0511             
1 54129U 22138S   24259.19504577  .00000216  00000+0  50599-3 0  9996
2 54129  87.9088  72.2571 0001378  86.3312 273.7978 13.19727027 93294
ONEWEB-0512             
1 54130U 22138T   24259.18715715  .00000146  00000+0  33315-3 0  9994
2 54130  87.9095  72.2818 0001426 104.3708 255.7583 13.19724413 93267
ONEWEB-0513             
1 54131U 22138U   24259.84025147  .00000063  00000+0  12622-3 0  9997
2 54131  87.9097  72.1437 0001244 106.2296 253.8974 13.19727803 93233
ONEWEB-0514             
1 54132U 22138V   24259.88530850  .00000033  00000+0  49699-4 0  9996
2 54132  87.9093  72.1270 0001683  88.6728 271.4597 13.19723820 93372
ONEWEB-0515             
1 54133U 22138W   24259.42854359  .00000148  00000+0  33202-3 0  9999
2 54133  87.9235  41.6621 0002735  90.1099 270.0347 13.20771932 95728
ONEWEB-0516             
1 54134U 22138X   24259.55676058  .00000130  00000+0  29228-3 0  9996
2 54134  87.9100  72.2099 0001796  93.2424 266.8914 13.19723978 93334
ONEWEB-0517             
1 54135U 22138Y   24259.83947578  .00000108  00000+0  23758-3 0  9993
2 54135  87.9092  72.1320 0001407  81.6162 278.5130 13.19726742 93376
ONEWEB-0518             
1 54136U 22138Z   24259.55518323  .00000180  00000+0  41827-3 0  9992
2 54136  87.9098  72.2078 0001636  89.9157 270.2164 13.19723961 93335
ONEWEB-0519             
1 54137U 22138AA  24259.50459621  .00000183  00000+0  42477-3 0  9998
2 54137  87.9093  72.1938 0001437  88.0564 272.0734 13.19719139 93331
ONEWEB-0520             
1 54138U 22138AB  24258.93284901 -.00000001  00000+0 -34187-4 0  9993
2 54138  87.9091  72.3113 0001634 106.8741 253.2571 13.19731566 92373
ONEWEB-0521             
1 54139U 22138AC  24259.87582145 -.00000076  00000+0 -22127-3 0  9991
2 54139  87.9091  72.1143 0001670  83.0018 277.1305 13.19727614 93345
ONEWEB-0522             
1 54140U 22138AD  24259.47620809  .00000118  00000+0  26194-3 0  9992
2 54140  87.9092  72.1959 0001821  94.2970 265.8371 13.19724515 93302
ONEWEB-0523             
1 54141U 22138AE  24259.11286928  .00000211  00000+0  48718-3 0  9994
2 54141  87.9235  41.7538 0002313  77.2642 282.8750 13.20774547 95686
ONEWEB-0524             
1 54142U 22138AF  24259.48062462  .00000055  00000+0  10333-3 0  9998
2 54142  87.9236  41.6837 0002853  97.7584 262.3873 13.20771888 95730
ONEWEB-0525             
1 54143U 22138AG  24259.49513811 -.00000192  00000+0 -51075-3 0  9991
2 54143  87.9092  72.2034 0001612 101.5227 258.6087 13.19725125 93329
ONEWEB-0526             
1 54144U 22138AH  24259.75576204  .00000113  00000+0  24883-3 0  9994
2 54144  87.9089  72.1447 0001756  95.4007 264.7326 13.19728076 93332
ONEWEB-0529             
1 54145U 22138AJ  24258.84914406 -.00000169  00000+0 -45503-3 0  9999
2 54145  87.9097  72.3477 0001835 102.0081 258.1258 13.19724709 92364
ONEWEB-0531             
1 54146U 22138AK  24258.86035073 -.00000066  00000+0 -19390-3 0  9997
2 54146  87.9232  41.7987 0002708  83.1352 277.0090 13.20774872 95659
ONEWEB-0535             
1 54147U 22138AL  24259.56466301  .00000105  00000+0  23052-3 0  9990
2 54147  87.9089  72.1806 0001931  84.5661 275.5692 13.19725410 93340
ONEWEB-0536             
1 54148U 22138AM  24259.37803240  .00000133  00000+0  29602-3 0  9995
2 54148  87.9235  41.7439 0002279  70.9225 289.2155 13.20770227 95716
ONEWEB-0527             
1 54642U 22166A   24259.08254068  .00000094  00000+0  19641-3 0  9999
2 54642  87.9357  11.4467 0001863 100.6684 259.4660 13.21826566 87421
ONEWEB-0528             
1 54643U 22166B   24259.01317913  .00000154  00000+0  34211-3 0  9999
2 54643  87.9361  11.4506 0001853 104.7329 255.4010 13.21825493 87424
ONEWEB-0539             
1 54644U 22166C   24259.04944463  .00000181  00000+0  40603-3 0  9991
2 54644  87.9364  11.4465 0001636 100.0527 260.0791 13.21825184 87425
ONEWEB-0540             
1 54645U 22166D   24259.87657024  .00000018  00000+0  12443-4 0  9998
2 54645  87.9358  11.2958 0001535 101.3951 258.7355 13.21828171 87549
ONEWEB-0542             
1 54646U 22166E   24259.36169647  .00000079  00000+0  16042-3 0  9997
2 54646  87.9363  11.3839 0001472  87.7402 272.3901 13.21827181 87474
ONEWEB-0545             
1 54647U 22166F   24259.55563637  .00000152  00000+0  33711-3 0  9990
2 54647  87.9353  11.3574 0001283 103.3529 256.7748 13.21825400 87472
ONEWEB-0580             
1 54648U 22166G   24259.07465352  .00000071  00000+0  13984-3 0  9993
2 54648  87.9359  11.4283 0001404  87.6469 272.4826 13.21830105 87446
ONEWEB-0582             
1 54649U 22166H   24259.34434255  .00000140  00000+0  30690-3 0  9992
2 54649  87.9358  11.4092 0001460  79.6369 280.4929 13.21825413 87467
ONEWEB-0583             
1 54650U 22166J   24259.80954848  .00000009  00000+0 -96169-5 0  9990
2 54650  87.9357  11.3158 0001723 100.3413 259.7915 13.21824500 87543
ONEWEB-0584             
1 54651U 22166K   24259.07307925  .00000115  00000+0  24666-3 0  9996
2 54651  87.9360  11.4322 0001513  94.7746 265.3560 13.21826694 87426
ONEWEB-0585             
1 54652U 22166L   24258.87124344  .00000026  00000+0  30589-4 0  9999
2 54652  87.9361  11.4829 0001888 101.0035 259.1311 13.21824486 87408
ONEWEB-0586             
1 54653U 22166M   24259.26234321  .00000140  00000+0  30830-3 0  9996
2 54653  87.9358  11.4147 0001588  97.1180 263.0135 13.21826220 87452
ONEWEB-0587             
1 54654U 22166N   24259.87737506 -.00000011  00000+0 -57425-4 0  9996
2 54654  87.9358  11.2477 0002039 105.4529 254.6830 13.21826032 87683
